start=new Date('2021-11-08T00:00:00.000Z').valueOf();
sats=[{"EPOCH":"2021-11-07T20:58:47.927712","BSTAR":"-0.00012778000000","CENTER_NAME":"EARTH","MEAN_MOTION_DDOT":"0.0000000000000","OBJECT_TYPE":"PAYLOAD","APOAPSIS":"548.332","MEAN_ANOMALY":"298.2945","REV_AT_EPOCH":"10178","PERIOD":"95.593","OBJECT_ID":"2020-001AT","MEAN_MOTION_DOT":"-0.00002184","RCS_SIZE":"LARGE","TLE_LINE2":"2 44955  53.0551 212.1660 0001582  61.8204 298.2945 15.06392536101789","PERIAPSIS":"546.141","COUNTRY_CODE":"US","MEAN_MOTION":"15.06392536","RA_OF_ASC_NODE":"212.1660","NORAD_CAT_ID":"44955","GP_ID":"189213125","ELEMENT_SET_NO":"999","TIME_SYSTEM":"UTC","INCLINATION":"53.0551","OBJECT_NAME":"STARLINK-1069","FILE":"3207836","TLE_LINE1":"1 44955U 20001AT  21311.87416583 -.00002184  00000-0 -12778-3 0  9995","SITE":"AFETR","ECCENTRICITY":"0.00015820","EPHEMERIS_TYPE":"0","ARG_OF_PERICENTER":"61.8204","LAUNCH_DATE":"2020-01-07","CLASSIFICATION_TYPE":"U","REF_FRAME":"TEME","SEMIMAJOR_AXIS":"6925.371","DECAY_DATE":null,"MEAN_ELEMENT_THEORY":"SGP4"},{"REF_FRAME":"TEME","CLASSIFICATION_TYPE":"U","LAUNCH_DATE":"2020-01-07","EPHEMERIS_TYPE":"0","ARG_OF_PERICENTER":"72.4816","MEAN_ELEMENT_THEORY":"SGP4","DECAY_DATE":null,"SEMIMAJOR_AXIS":"6925.320","SITE":"AFETR","TLE_LINE1":"1 44956U 20001AU  21311.47237789  .00003169  00000-0  23150-3 0  9999","ECCENTRICITY":"0.00016740","COUNTRY_CODE":"US","MEAN_MOTION":"15.06409311","PERIAPSIS":"546.026","TLE_LINE2":"2 44956  53.0529 213.9665 0001674  72.4816 287.6356 15.06409311101786","INCLINATION":"53.0529","FILE":"3207737","OBJECT_NAME":"STARLINK-1070","GP_ID":"189192423","ELEMENT_SET_NO":"999","TIME_SYSTEM":"UTC","RA_OF_ASC_NODE":"213.9665","NORAD_CAT_ID":"44956","OBJECT_TYPE":"PAYLOAD","MEAN_ANOMALY":"287.6356","APOAPSIS":"548.344","MEAN_MOTION_DDOT":"0.0000000000000","CENTER_NAME":"EARTH","BSTAR":"0.00023150000000","EPOCH":"2021-11-07T11:20:13.449696","MEAN_MOTION_DOT":"0.00003169","RCS_SIZE":"LARGE","OBJECT_ID":"2020-001AU","PERIOD":"95.592","REV_AT_EPOCH":"10178"},{"PERIAPSIS":"546.219","MEAN_MOTION":"15.06380705","COUNTRY_CODE":"US","TLE_LINE2":"2 44957  53.0535 212.3617 0001522  69.7291 290.3862 15.06380705101836","OBJECT_NAME":"STARLINK-1074","FILE":"3207836","INCLINATION":"53.0535","NORAD_CAT_ID":"44957","RA_OF_ASC_NODE":"212.3617","TIME_SYSTEM":"UTC","ELEMENT_SET_NO":"999","GP_ID":"189214126","OBJECT_TYPE":"PAYLOAD","APOAPSIS":"548.327","MEAN_ANOMALY":"290.3862","EPOCH":"2021-11-07T19:55:05.876832","BSTAR":"0.00000041232000","CENTER_NAME":"EARTH","MEAN_MOTION_DDOT":"0.0000000000000","OBJECT_ID":"2020-001AV","RCS_SIZE":"LARGE","MEAN_MOTION_DOT":"-0.00000275","REV_AT_EPOCH":"10183","PERIOD":"95.593","CLASSIFICATION_TYPE":"U","REF_FRAME":"TEME","ARG_OF_PERICENTER":"69.7291","EPHEMERIS_TYPE":"0","LAUNCH_DATE":"2020-01-07","MEAN_ELEMENT_THEORY":"SGP4","SEMIMAJOR_AXIS":"6925.408","DECAY_DATE":null,"SITE":"AFETR","TLE_LINE1":"1 44957U 20001AV  21311.82992913 -.00000275  00000-0  41232-6 0  9996","ECCENTRICITY":"0.00015220"},{"BSTAR":"0.00010782000000","EPOCH":"2021-11-07T21:51:51.378912","CENTER_NAME":"EARTH","MEAN_MOTION_DDOT":"0.0000000000000","OBJECT_TYPE":"PAYLOAD","APOAPSIS":"548.228","MEAN_ANOMALY":"292.0996","REV_AT_EPOCH":"10184","PERIOD":"95.593","OBJECT_ID":"2020-001AX","RCS_SIZE":"LARGE","MEAN_MOTION_DOT":"0.00001324","TLE_LINE2":"2 44959  53.0543 211.9981 0001407  68.0142 292.0996 15.06387009101847","PERIAPSIS":"546.279","MEAN_MOTION":"15.06387009","COUNTRY_CODE":"US","NORAD_CAT_ID":"44959","RA_OF_ASC_NODE":"211.9981","TIME_SYSTEM":"UTC","GP_ID":"189214371","ELEMENT_SET_NO":"999","FILE":"3207836","OBJECT_NAME":"STARLINK-1076","INCLINATION":"53.0543","TLE_LINE1":"1 44959U 20001AX  21311.91101133  .00001324  00000-0  10782-3 0  9992","SITE":"AFETR","ECCENTRICITY":"0.00014070","EPHEMERIS_TYPE":"0","ARG_OF_PERICENTER":"68.0142","LAUNCH_DATE":"2020-01-07","CLASSIFICATION_TYPE":"U","REF_FRAME":"TEME","SEMIMAJOR_AXIS":"6925.388","DECAY_DATE":null,"MEAN_ELEMENT_THEORY":"SGP4"},{"TLE_LINE1":"1 44961U 20001AZ  21311.45397509  .00002744  00000-0  20325-3 0  9999","SITE":"AFETR","ECCENTRICITY":"0.00015040","EPHEMERIS_TYPE":"0","ARG_OF_PERICENTER":"62.9763","LAUNCH_DATE":"2020-01-07","CLASSIFICATION_TYPE":"U","REF_FRAME":"TEME","SEMIMAJOR_AXIS":"6925.476","DECAY_DATE":null,"MEAN_ELEMENT_THEORY":"SGP4","BSTAR":"0.00020325000000","EPOCH":"2021-11-07T10:53:43.447776","MEAN_MOTION_DDOT":"0.0000000000000","CENTER_NAME":"EARTH","OBJECT_TYPE":"PAYLOAD","APOAPSIS":"548.383","MEAN_ANOMALY":"297.1380","REV_AT_EPOCH":"10178","PERIOD":"95.595","OBJECT_ID":"2020-001AZ","MEAN_MOTION_DOT":"0.00002744","RCS_SIZE":"LARGE","TLE_LINE2":"2 44961  53.0530 214.0438 0001504  62.9763 297.1380 15.06358390101784","PERIAPSIS":"546.299","COUNTRY_CODE":"US","MEAN_MOTION":"15.06358390","RA_OF_ASC_NODE":"214.0438","NORAD_CAT_ID":"44961","GP_ID":"189179776","ELEMENT_SET_NO":"999","TIME_SYSTEM":"UTC","INCLINATION":"53.0530","FILE":"3207387","OBJECT_NAME":"STARLINK-1080"},{"OBJECT_ID":"2020-001BB","RCS_SIZE":"LARGE","MEAN_MOTION_DOT":"0.00006993","REV_AT_EPOCH":"10250","PERIOD":"95.458","MEAN_ANOMALY":"267.5074","OBJECT_TYPE":"PAYLOAD","APOAPSIS":"542.496","EPOCH":"2021-11-07T03:29:48.575904","BSTAR":"0.00046103000000","MEAN_MOTION_DDOT":"0.0000000000000","CENTER_NAME":"EARTH","FILE":"3207387","OBJECT_NAME":"STARLINK-1085","INCLINATION":"52.9993","NORAD_CAT_ID":"44963","RA_OF_ASC_NODE":"211.5629","TIME_SYSTEM":"UTC","ELEMENT_SET_NO":"999","GP_ID":"189180028","PERIAPSIS":"538.994","MEAN_MOTION":"15.08513124","COUNTRY_CODE":"US","TLE_LINE2":"2 44963  52.9993 211.5629 0002531  92.6205 267.5074 15.08513124102505","ECCENTRICITY":"0.00025310","SITE":"AFETR","TLE_LINE1":"1 44963U 20001BB  21311.14570111  .00006993  00000-0  46103-3 0  9991","MEAN_ELEMENT_THEORY":"SGP4","SEMIMAJOR_AXIS":"6918.880","DECAY_DATE":null,"CLASSIFICATION_TYPE":"U","REF_FRAME":"TEME","EPHEMERIS_TYPE":"0","ARG_OF_PERICENTER":"92.6205","LAUNCH_DATE":"2020-01-07"},{"PERIAPSIS":"546.125","COUNTRY_CODE":"US","MEAN_MOTION":"15.06377034","TLE_LINE2":"2 44964  53.0529 212.7250 0001674  68.4559 291.6608 15.06377034101827","INCLINATION":"53.0529","OBJECT_NAME":"STARLINK-1086","FILE":"3207836","RA_OF_ASC_NODE":"212.7250","NORAD_CAT_ID":"44964","ELEMENT_SET_NO":"999","GP_ID":"189214627","TIME_SYSTEM":"UTC","OBJECT_TYPE":"PAYLOAD","MEAN_ANOMALY":"291.6608","APOAPSIS":"548.443","EPOCH":"2021-11-07T17:58:19.734528","BSTAR":"0.00001855900000","CENTER_NAME":"EARTH","MEAN_MOTION_DDOT":"0.0000000000000","OBJECT_ID":"2020-001BC","MEAN_MOTION_DOT":"-0.00000005","RCS_SIZE":"LARGE","REV_AT_EPOCH":"10182","PERIOD":"95.594","CLASSIFICATION_TYPE":"U","REF_FRAME":"TEME","ARG_OF_PERICENTER":"68.4559","EPHEMERIS_TYPE":"0","LAUNCH_DATE":"2020-01-07","MEAN_ELEMENT_THEORY":"SGP4","SEMIMAJOR_AXIS":"6925.419","DECAY_DATE":null,"SITE":"AFETR","TLE_LINE1":"1 44964U 20001BC  21311.74883952 -.00000005  00000-0  18559-4 0  9992","ECCENTRICITY":"0.00016740"},{"ECCENTRICITY":"0.00014620","SITE":"AFETR","TLE_LINE1":"1 44966U 20001BE  21311.90364292  .00010164  00000-0  70035-3 0  9995","MEAN_ELEMENT_THEORY":"SGP4","DECAY_DATE":null,"SEMIMAJOR_AXIS":"6925.365","REF_FRAME":"TEME","CLASSIFICATION_TYPE":"U","LAUNCH_DATE":"2020-01-07","ARG_OF_PERICENTER":"82.3874","EPHEMERIS_TYPE":"0","MEAN_MOTION_DOT":"0.00010164","RCS_SIZE":"LARGE","OBJECT_ID":"2020-001BE","PERIOD":"95.592","REV_AT_EPOCH":"10184","OBJECT_TYPE":"PAYLOAD","MEAN_ANOMALY":"277.7281","APOAPSIS":"548.242","CENTER_NAME":"EARTH","MEAN_MOTION_DDOT":"0.0000000000000","BSTAR":"0.00070035000000","EPOCH":"2021-11-07T21:41:14.748288","INCLINATION":"53.0530","OBJECT_NAME":"STARLINK-1088","FILE":"3207836","GP_ID":"189214872","ELEMENT_SET_NO":"999","TIME_SYSTEM":"UTC","RA_OF_ASC_NODE":"212.0232","NORAD_CAT_ID":"44966","COUNTRY_CODE":"US","MEAN_MOTION":"15.06394654","PERIAPSIS":"546.217","TLE_LINE2":"2 44966  53.0530 212.0232 0001462  82.3874 277.7281 15.06394654101845"},{"ECCENTRICITY":"0.00014190","SITE":"AFETR","TLE_LINE1":"1 44967U 20001BF  21311.72673311  .00008470  00000-0  58727-3 0  9992","MEAN_ELEMENT_THEORY":"SGP4","DECAY_DATE":null,"SEMIMAJOR_AXIS":"6925.438","REF_FRAME":"TEME","CLASSIFICATION_TYPE":"U","LAUNCH_DATE":"2020-01-07","EPHEMERIS_TYPE":"0","ARG_OF_PERICENTER":"69.2343","RCS_SIZE":"LARGE","MEAN_MOTION_DOT":"0.00008470","OBJECT_ID":"2020-001BF","PERIOD":"95.594","REV_AT_EPOCH":"10182","APOAPSIS":"548.286","OBJECT_TYPE":"PAYLOAD","MEAN_ANOMALY":"290.8798","CENTER_NAME":"EARTH","MEAN_MOTION_DDOT":"0.0000000000000","EPOCH":"2021-11-07T17:26:29.740704","BSTAR":"0.00058727000000","FILE":"3207836","OBJECT_NAME":"STARLINK-1089","INCLINATION":"53.0533","TIME_SYSTEM":"UTC","ELEMENT_SET_NO":"999","GP_ID":"189213126","NORAD_CAT_ID":"44967","RA_OF_ASC_NODE":"212.8230","MEAN_MOTION":"15.06370686","COUNTRY_CODE":"US","PERIAPSIS":"546.321","TLE_LINE2":"2 44967  53.0533 212.8230 0001419  69.2343 290.8798 15.06370686101828"},{"OBJECT_TYPE":"PAYLOAD","MEAN_ANOMALY":"284.8991","APOAPSIS":"548.218","EPOCH":"2021-11-07T22:07:47.598816","BSTAR":"-0.00002734700000","CENTER_NAME":"EARTH","MEAN_MOTION_DDOT":"0.0000000000000","OBJECT_ID":"2020-001BG","RCS_SIZE":"LARGE","MEAN_MOTION_DOT":"-0.00000689","REV_AT_EPOCH":"10185","PERIOD":"95.593","PERIAPSIS":"546.286","MEAN_MOTION":"15.06387444","COUNTRY_CODE":"US","TLE_LINE2":"2 44968  53.0538 211.9402 0001395  75.2152 284.8991 15.06387444101854","FILE":"3207836","OBJECT_NAME":"STARLINK-1090","INCLINATION":"53.0538","NORAD_CAT_ID":"44968","RA_OF_ASC_NODE":"211.9402","TIME_SYSTEM":"UTC","ELEMENT_SET_NO":"999","GP_ID":"189213376","SITE":"AFETR","TLE_LINE1":"1 44968U 20001BG  21311.92207869 -.00000689  00000-0 -27347-4 0  9997","ECCENTRICITY":"0.00013950","CLASSIFICATION_TYPE":"U","REF_FRAME":"TEME","EPHEMERIS_TYPE":"0","ARG_OF_PERICENTER":"75.2152","LAUNCH_DATE":"2020-01-07","MEAN_ELEMENT_THEORY":"SGP4","SEMIMAJOR_AXIS":"6925.387","DECAY_DATE":null}];
